STARLINK-35767          
1 67058U 25294AE  26005.58336806  .00107923  00000+0  25612-2 0  9999
2 67058  43.0003  38.9661 0001628 269.7008 172.9704 15.40619744  3925
HULIANWANG DIGUI-119    
1 67059U 25295A   26005.54859130  .00000481  00000+0  27351-3 0  9991
2 67059  50.0039 271.8450 0013887 330.6812  29.3321 14.24629464  3514
HULIANWANG DIGUI-120    
1 67060U 25295B   26005.54369814  .00000434  00000+0  25361-3 0  9995
2 67060  50.0047 271.8200 0013268 331.2889  28.7292 14.24631179  3518
HULIANWANG DIGUI-121    
1 67061U 25295C   26005.54541110  .00000457  00000+0  26344-3 0  9994
2 67061  50.0010 271.8136 0013173 330.5199  29.4970 14.24648064  3510
HULIANWANG DIGUI-122    
1 67062U 25295D   26005.54280434  .00000430  00000+0  25187-3 0  9999
2 67062  50.0041 271.8130 0013015 336.4887  23.5430 14.24623220  3516
HULIANWANG DIGUI-123    
1 67063U 25295E   26005.40147613  .00000406  00000+0  24151-3 0  9999
2 67063  50.0048 272.4023 0011953 335.5177  24.5167 14.24628592  3495
HULIANWANG DIGUI-124    
1 67064U 25295F   26005.54078862  .00000403  00000+0  24054-3 0  9993
2 67064  50.0006 271.7861 0011822 329.6909  30.3320 14.24632732  3514
HULIANWANG DIGUI-125    
1 67065U 25295G   26005.53969069  .00000385  00000+0  23267-3 0  9995
2 67065  49.9999 271.7768 0011953 337.6403  22.3988 14.24640612  3519
HULIANWANG DIGUI-126    
1 67066U 25295H   26005.53862977  .00000372  00000+0  22709-3 0  9992
2 67066  50.0002 271.7712 0011238 331.2278  28.8015 14.24660883  3517
HULIANWANG DIGUI-127    
1 67067U 25295J   26005.53758041 -.00001175  00000+0 -43322-3 0  9997
2 67067  50.0040 271.7760 0010653 337.8722  22.1730 14.24677030  3512
CZ-12 R/B               
1 67068U 25295K   26005.13341795  .00000061  00000+0  69312-4 0  9997
2 67068  49.9934 270.8969 0056891 219.7576 139.9169 14.41135546  3481
XIWANG-5 02             
1 67069U 25296A   26005.57045327  .00017068  00000+0  95418-3 0  9999
2 67069  41.3533 326.0858 0002200 330.9327  29.1370 15.13125709  3573
