CCSDS_OMM_VERS = 2.0
CREATION_DATE  = 
ORIGINATOR     = 

OBJECT_NAME    = STARLINK-35767
OBJECT_ID      = 2025-294AE
CENTER_NAME    = EARTH
REF_FRAME      = TEME
TIME_SYSTEM    = UTC
MEAN_ELEMENT_THEORY = SGP/SGP4

EPOCH          = 2026-01-05T14:00:03.000384
MEAN_MOTION    = 15.40619744
ECCENTRICITY   = .00016287
INCLINATION    = 43.0003
RA_OF_ASC_NODE = 38.9661
ARG_OF_PERICENTER = 269.7008
MEAN_ANOMALY   = 172.9704

EPHEMERIS_TYPE = 0
CLASSIFICATION_TYPE = U
NORAD_CAT_ID   = 67058
ELEMENT_SET_NO = 999
REV_AT_EPOCH   = 392
BSTAR          = .25612203E-2
MEAN_MOTION_DOT = .107923E-2
MEAN_MOTION_DDOT = 0

CCSDS_OMM_VERS = 2.0
CREATION_DATE  = 
ORIGINATOR     = 

OBJECT_NAME    = HULIANWANG DIGUI-119
OBJECT_ID      = 2025-295A
CENTER_NAME    = EARTH
REF_FRAME      = TEME
TIME_SYSTEM    = UTC
MEAN_ELEMENT_THEORY = SGP/SGP4

EPOCH          = 2026-01-05T13:09:58.288320
MEAN_MOTION    = 14.24629464
ECCENTRICITY   = .00138878
INCLINATION    = 50.0039
RA_OF_ASC_NODE = 271.8450
ARG_OF_PERICENTER = 330.6812
MEAN_ANOMALY   = 29.3321

EPHEMERIS_TYPE = 0
CLASSIFICATION_TYPE = U
NORAD_CAT_ID   = 67059
ELEMENT_SET_NO = 999
REV_AT_EPOCH   = 351
BSTAR          = .27351029E-3
MEAN_MOTION_DOT = .481E-5
MEAN_MOTION_DDOT = 0

CCSDS_OMM_VERS = 2.0
CREATION_DATE  = 
ORIGINATOR     = 

OBJECT_NAME    = HULIANWANG DIGUI-120
OBJECT_ID      = 2025-295B
CENTER_NAME    = EARTH
REF_FRAME      = TEME
TIME_SYSTEM    = UTC
MEAN_ELEMENT_THEORY = SGP/SGP4

EPOCH          = 2026-01-05T13:02:55.519296
MEAN_MOTION    = 14.24631179
ECCENTRICITY   = .0013268
INCLINATION    = 50.0047
RA_OF_ASC_NODE = 271.8200
ARG_OF_PERICENTER = 331.2889
MEAN_ANOMALY   = 28.7292

EPHEMERIS_TYPE = 0
CLASSIFICATION_TYPE = U
NORAD_CAT_ID   = 67060
ELEMENT_SET_NO = 999
REV_AT_EPOCH   = 351
BSTAR          = .25360782E-3
MEAN_MOTION_DOT = .434E-5
MEAN_MOTION_DDOT = 0

CCSDS_OMM_VERS = 2.0
CREATION_DATE  = 
ORIGINATOR     = 

OBJECT_NAME    = HULIANWANG DIGUI-121
OBJECT_ID      = 2025-295C
CENTER_NAME    = EARTH
REF_FRAME      = TEME
TIME_SYSTEM    = UTC
MEAN_ELEMENT_THEORY = SGP/SGP4

EPOCH          = 2026-01-05T13:05:23.519040
MEAN_MOTION    = 14.24648064
ECCENTRICITY   = .0013173
INCLINATION    = 50.0010
RA_OF_ASC_NODE = 271.8136
ARG_OF_PERICENTER = 330.5199
MEAN_ANOMALY   = 29.4970

EPHEMERIS_TYPE = 0
CLASSIFICATION_TYPE = U
NORAD_CAT_ID   = 67061
ELEMENT_SET_NO = 999
REV_AT_EPOCH   = 351
BSTAR          = .26344346E-3
MEAN_MOTION_DOT = .457E-5
MEAN_MOTION_DDOT = 0

CCSDS_OMM_VERS = 2.0
CREATION_DATE  = 
ORIGINATOR     = 

OBJECT_NAME    = HULIANWANG DIGUI-122
OBJECT_ID      = 2025-295D
CENTER_NAME    = EARTH
REF_FRAME      = TEME
TIME_SYSTEM    = UTC
MEAN_ELEMENT_THEORY = SGP/SGP4

EPOCH          = 2026-01-05T13:01:38.294976
MEAN_MOTION    = 14.24623220
ECCENTRICITY   = .0013015
INCLINATION    = 50.0041
RA_OF_ASC_NODE = 271.8130
ARG_OF_PERICENTER = 336.4887
MEAN_ANOMALY   = 23.5430

EPHEMERIS_TYPE = 0
CLASSIFICATION_TYPE = U
NORAD_CAT_ID   = 67062
ELEMENT_SET_NO = 999
REV_AT_EPOCH   = 351
BSTAR          = .25187237E-3
MEAN_MOTION_DOT = .43E-5
MEAN_MOTION_DDOT = 0

CCSDS_OMM_VERS = 2.0
CREATION_DATE  = 
ORIGINATOR     = 

OBJECT_NAME    = HULIANWANG DIGUI-123
OBJECT_ID      = 2025-295E
CENTER_NAME    = EARTH
REF_FRAME      = TEME
TIME_SYSTEM    = UTC
MEAN_ELEMENT_THEORY = SGP/SGP4

EPOCH          = 2026-01-05T09:38:07.537632
MEAN_MOTION    = 14.24628592
ECCENTRICITY   = .00119538
INCLINATION    = 50.0048
RA_OF_ASC_NODE = 272.4023
ARG_OF_PERICENTER = 335.5177
MEAN_ANOMALY   = 24.5167

EPHEMERIS_TYPE = 0
CLASSIFICATION_TYPE = U
NORAD_CAT_ID   = 67063
ELEMENT_SET_NO = 999
REV_AT_EPOCH   = 349
BSTAR          = .24150651E-3
MEAN_MOTION_DOT = .406E-5
MEAN_MOTION_DDOT = 0

CCSDS_OMM_VERS = 2.0
CREATION_DATE  = 
ORIGINATOR     = 

OBJECT_NAME    = HULIANWANG DIGUI-124
OBJECT_ID      = 2025-295F
CENTER_NAME    = EARTH
REF_FRAME      = TEME
TIME_SYSTEM    = UTC
MEAN_ELEMENT_THEORY = SGP/SGP4

EPOCH          = 2026-01-05T12:58:44.136768
MEAN_MOTION    = 14.24632732
ECCENTRICITY   = .00118221
INCLINATION    = 50.0006
RA_OF_ASC_NODE = 271.7861
ARG_OF_PERICENTER = 329.6909
MEAN_ANOMALY   = 30.3320

EPHEMERIS_TYPE = 0
CLASSIFICATION_TYPE = U
NORAD_CAT_ID   = 67064
ELEMENT_SET_NO = 999
REV_AT_EPOCH   = 351
BSTAR          = .24053944E-3
MEAN_MOTION_DOT = .403E-5
MEAN_MOTION_DDOT = 0

CCSDS_OMM_VERS = 2.0
CREATION_DATE  = 
ORIGINATOR     = 

OBJECT_NAME    = HULIANWANG DIGUI-125
OBJECT_ID      = 2025-295G
CENTER_NAME    = EARTH
REF_FRAME      = TEME
TIME_SYSTEM    = UTC
MEAN_ELEMENT_THEORY = SGP/SGP4

EPOCH          = 2026-01-05T12:57:09.275616
MEAN_MOTION    = 14.24640612
ECCENTRICITY   = .00119531
INCLINATION    = 49.9999
RA_OF_ASC_NODE = 271.7768
ARG_OF_PERICENTER = 337.6403
MEAN_ANOMALY   = 22.3988

EPHEMERIS_TYPE = 0
CLASSIFICATION_TYPE = U
NORAD_CAT_ID   = 67065
ELEMENT_SET_NO = 999
REV_AT_EPOCH   = 351
BSTAR          = .23267029E-3
MEAN_MOTION_DOT = .385E-5
MEAN_MOTION_DDOT = 0

CCSDS_OMM_VERS = 2.0
CREATION_DATE  = 
ORIGINATOR     = 

OBJECT_NAME    = HULIANWANG DIGUI-126
OBJECT_ID      = 2025-295H
CENTER_NAME    = EARTH
REF_FRAME      = TEME
TIME_SYSTEM    = UTC
MEAN_ELEMENT_THEORY = SGP/SGP4

EPOCH          = 2026-01-05T12:55:37.612128
MEAN_MOTION    = 14.24660883
ECCENTRICITY   = .0011238
INCLINATION    = 50.0002
RA_OF_ASC_NODE = 271.7712
ARG_OF_PERICENTER = 331.2278
MEAN_ANOMALY   = 28.8015

EPHEMERIS_TYPE = 0
CLASSIFICATION_TYPE = U
NORAD_CAT_ID   = 67066
ELEMENT_SET_NO = 999
REV_AT_EPOCH   = 351
BSTAR          = .22708961E-3
MEAN_MOTION_DOT = .372E-5
MEAN_MOTION_DDOT = 0

CCSDS_OMM_VERS = 2.0
CREATION_DATE  = 
ORIGINATOR     = 

OBJECT_NAME    = HULIANWANG DIGUI-127
OBJECT_ID      = 2025-295J
CENTER_NAME    = EARTH
REF_FRAME      = TEME
TIME_SYSTEM    = UTC
MEAN_ELEMENT_THEORY = SGP/SGP4

EPOCH          = 2026-01-05T12:54:06.947424
MEAN_MOTION    = 14.24677030
ECCENTRICITY   = .00106539
INCLINATION    = 50.0040
RA_OF_ASC_NODE = 271.7760
ARG_OF_PERICENTER = 337.8722
MEAN_ANOMALY   = 22.1730

EPHEMERIS_TYPE = 0
CLASSIFICATION_TYPE = U
NORAD_CAT_ID   = 67067
ELEMENT_SET_NO = 999
REV_AT_EPOCH   = 351
BSTAR          = -.43321984E-3
MEAN_MOTION_DOT = -.1175E-4
MEAN_MOTION_DDOT = 0

CCSDS_OMM_VERS = 2.0
CREATION_DATE  = 
ORIGINATOR     = 

OBJECT_NAME    = CZ-12 R/B
OBJECT_ID      = 2025-295K
CENTER_NAME    = EARTH
REF_FRAME      = TEME
TIME_SYSTEM    = UTC
MEAN_ELEMENT_THEORY = SGP/SGP4

EPOCH          = 2026-01-05T03:12:07.310880
MEAN_MOTION    = 14.41135546
ECCENTRICITY   = .00568917
INCLINATION    = 49.9934
RA_OF_ASC_NODE = 270.8969
ARG_OF_PERICENTER = 219.7576
MEAN_ANOMALY   = 139.9169

EPHEMERIS_TYPE = 0
CLASSIFICATION_TYPE = U
NORAD_CAT_ID   = 67068
ELEMENT_SET_NO = 999
REV_AT_EPOCH   = 348
BSTAR          = .69311843E-4
MEAN_MOTION_DOT = .61E-6
MEAN_MOTION_DDOT = 0

CCSDS_OMM_VERS = 2.0
CREATION_DATE  = 
ORIGINATOR     = 

OBJECT_NAME    = XIWANG-5 02
OBJECT_ID      = 2025-296A
CENTER_NAME    = EARTH
REF_FRAME      = TEME
TIME_SYSTEM    = UTC
MEAN_ELEMENT_THEORY = SGP/SGP4

EPOCH          = 2026-01-05T13:41:27.162528
MEAN_MOTION    = 15.13125709
ECCENTRICITY   = .00022007
INCLINATION    = 41.3533
RA_OF_ASC_NODE = 326.0858
ARG_OF_PERICENTER = 330.9327
MEAN_ANOMALY   = 29.1370

EPHEMERIS_TYPE = 0
CLASSIFICATION_TYPE = U
NORAD_CAT_ID   = 67069
ELEMENT_SET_NO = 999
REV_AT_EPOCH   = 357
BSTAR          = .9541832E-3
MEAN_MOTION_DOT = .17068E-3
MEAN_MOTION_DDOT = 0

